{
    "week": 295,
    "satellites": [
        {
            "Name": "BEIDOU-3 M28 (C50)",
            "Line1": "1 58654U 23207A   24341.40280348 -.00000002  00000+0  00000+0 0  9996",
            "Line2": "2 58654  55.2561  81.2009 0002250 248.1514 111.8321  1.86231910  6451",
            "SatelliteNumber": "58654",
            "Classification": "U",
            "LaunchYear": "23",
            "LaunchNumber": "207",
            "PieceOfLaunch": "A",
            "EpochYear": "24",
            "EpochDay": 341.40280348,
            "FirstDerivativeMeanMotion": -2e-08,
            "SecondDerivativeMeanMotion": "00000+0",
            "BSTAR": "00000+0",
            "SetNumber": "999",
            "Inclination": 55.2561,
            "RAAN": 81.2009,
            "Eccentricity": 0.000225,
            "ArgumentOfPerigee": 248.1514,
            "MeanAnomaly": 111.8321,
            "MeanMotion": 1.8623191,
            "RevolutionNumber": "645"
        },
        {
            "Name": "BEIDOU-3 M26 (C48)",
            "Line1": "1 58655U 23207B   24340.66520443 -.00000002  00000+0  00000+0 0  9997",
            "Line2": "2 58655  55.2576  81.2117 0003629 237.8678 122.1028  1.86231387  6429",
            "SatelliteNumber": "58655",
            "Classification": "U",
            "LaunchYear": "23",
            "LaunchNumber": "207",
            "PieceOfLaunch": "B",
            "EpochYear": "24",
            "EpochDay": 340.66520443,
            "FirstDerivativeMeanMotion": -2e-08,
            "SecondDerivativeMeanMotion": "00000+0",
            "BSTAR": "00000+0",
            "SetNumber": "999",
            "Inclination": 55.2576,
            "RAAN": 81.2117,
            "Eccentricity": 0.0003629,
            "ArgumentOfPerigee": 237.8678,
            "MeanAnomaly": 122.1028,
            "MeanMotion": 1.86231387,
            "RevolutionNumber": "642"
        }
    ]
}